IRIDIUM 126             
1 42809U 17039G   24023.90257662  .00000540  00000+0  18571-3 0  9994
2 42809  86.3994 359.4237 0002215  85.8503 274.2946 14.34219366344493
IRIDIUM 124             
1 42810U 17039H   24023.81984367  .00000740  00000+0  21410-3 0  9993
2 42810  86.4499 296.2175 0001882  83.6045 276.5370 14.43271621348853
IRIDIUM 128             
1 42811U 17039J   24023.54447472  .00000301  00000+0  10058-3 0  9994
2 42811  86.3953  31.0860 0002119  87.4844 272.6594 14.34218020344470
IRIDIUM 121             
1 42812U 17039K   24023.92160762  .00000107  00000+0  31318-4 0  9998
2 42812  86.3987 359.4392 0002245  87.7723 272.3730 14.34218255344372
IRIDIUM 133             
1 42955U 17061A   24023.92503176  .00000266  00000+0  87839-4 0  9996
2 42955  86.3955  31.0231 0002314  87.9653 272.1808 14.34219565329328
IRIDIUM 100             
1 42956U 17061B   24023.91869434  .00000269  00000+0  88897-4 0  9996
2 42956  86.3953  30.9649 0002152  88.9640 271.1802 14.34217582329325
IRIDIUM 122             
1 42957U 17061C   24023.95673928  .00000521  00000+0  17901-3 0  9990
2 42957  86.3952  30.9471 0002122  85.8812 274.2626 14.34216284329339
IRIDIUM 129             
1 42958U 17061D   24023.56350372  .00000299  00000+0  99671-4 0  9990
2 42958  86.3955  31.1692 0002196  85.5284 274.6163 14.34219864329294
